ION SCV-017             
1 63230U 25052W   26068.71648816  .00006457  00000+0  24539-3 0  9998
2 63230  97.4016 324.7516 0023746  44.9875 315.3282 15.26881798 54851
STARLINK-35718          
1 66894U 25283S   26068.15011130  .00039207  00000+0  13287-2 0  9990
2 66894  53.1623  26.5203 0001386  41.6262 318.4844 15.30205121 15763
